{
    "links": {
        "self": "http://www.neowsapp.com/rest/v1/neo/3567572?api_key=iIulBulltgU6a56xZRHN4H3l9WmuAYTsLGpBGhQ2"
    },
    "id": "3567572",
    "neo_reference_id": "3567572",
    "name": "(2011 LD1)",
    "designation": "2011 LD1",
    "nasa_jpl_url": "http://ssd.jpl.nasa.gov/sbdb.cgi?sstr=3567572",
    "absolute_magnitude_h": 18.8,
    "estimated_diameter": {
        "kilometers": {
            "estimated_diameter_min": 0.4619074603,
            "estimated_diameter_max": 1.0328564805
        },
        "meters": {
            "estimated_diameter_min": 461.9074602816,
            "estimated_diameter_max": 1032.8564805039
        },
        "miles": {
            "estimated_diameter_min": 0.2870159005,
            "estimated_diameter_max": 0.6417870641
        },
        "feet": {
            "estimated_diameter_min": 1515.4444719902,
            "estimated_diameter_max": 3388.6368554964
        }
    },
    "is_potentially_hazardous_asteroid": false,
    "close_approach_data": [
        {
            "close_approach_date": "2011-05-16",
            "close_approach_date_full": "2011-May-16 07:42",
            "epoch_date_close_approach": 1305531720000,
            "relative_velocity": {
                "kilometers_per_second": "23.0526477011",
                "kilometers_per_hour": "82989.5317240864",
                "miles_per_hour": "51566.4676426691"
            },
            "miss_distance": {
                "astronomical": "0.4552079549",
                "lunar": "177.0758944561",
                "kilometers": "68098140.460096063",
                "miles": "42314222.3453411494"
            },
            "orbiting_body": "Earth"
        },
        {
            "close_approach_date": "2022-05-22",
            "close_approach_date_full": "2022-May-22 03:13",
            "epoch_date_close_approach": 1653189180000,
            "relative_velocity": {
                "kilometers_per_second": "28.7816424926",
                "kilometers_per_hour": "103613.9129734694",
                "miles_per_hour": "64381.6560917649"
            },
            "miss_distance": {
                "astronomical": "0.329792284",
                "lunar": "128.289198476",
                "kilometers": "49336223.22883508",
                "miles": "30656107.571800904"
            },
            "orbiting_body": "Earth"
        }
    ],
    "orbital_data": {
        "orbit_id": "14",
        "orbit_determination_date": "2017-04-06 08:53:20",
        "first_observation_date": "2011-06-03",
        "last_observation_date": "2011-06-25",
        "data_arc_in_days": 22,
        "observations_used": 92,
        "orbit_uncertainty": "7",
        "minimum_orbit_intersection": ".32917",
        "jupiter_tisserand_invariant": "3.620",
        "epoch_osculation": "2459000.5",
        "eccentricity": ".7792597123370029",
        "semi_major_axis": "1.696552697850571",
        "inclination": "39.46178445301276",
        "ascending_node_longitude": "83.20399914226445",
        "orbital_period": "807.1410920261543",
        "perihelion_distance": ".3744975305589689",
        "perihelion_argument": "31.62497060112463",
        "aphelion_distance": "3.018607865142173",
        "perihelion_time": "2458859.023042952415",
        "mean_anomaly": "63.10136485465936",
        "mean_motion": ".446018674500015",
        "equinox": "J2000",
        "orbit_class": {
            "orbit_class_type": "APO",
            "orbit_class_description": "Near-Earth asteroid orbits which cross the Earth’s orbit similar to that of 1862 Apollo",
            "orbit_class_range": "a (semi-major axis) > 1.0 AU; q (perihelion) < 1.017 AU"
        }
    },
    "is_sentry_object": false
}